[{"OBJECT_NAME":"SAUDISAT 5A","OBJECT_ID":"2018-102A","EPOCH":"2026-03-09T23:40:00.596928","MEAN_MOTION":15.26941021,"ECCENTRICITY":0.00113651,"INCLINATION":97.3185,"RA_OF_ASC_NODE":132.4981,"ARG_OF_PERICENTER":121.7113,"MEAN_ANOMALY":238.5235,"EPHEMERIS_TYPE":0,"CLASSIFICATION_TYPE":"U","NORAD_CAT_ID":43831,"ELEMENT_SET_NO":999,"REV_AT_EPOCH":40053,"BSTAR":0.00030305233,"MEAN_MOTION_DOT":7.96e-5,"MEAN_MOTION_DDOT":0},{"OBJECT_NAME":"STARLINK-30890","OBJECT_ID":"2023-177M","EPOCH":"2026-03-09T22:00:01.999584","MEAN_MOTION":15.26752313,"ECCENTRICITY":0.00016746,"INCLINATION":43.0009,"RA_OF_ASC_NODE":348.99,"ARG_OF_PERICENTER":270.7149,"MEAN_ANOMALY":175.7268,"EPHEMERIS_TYPE":0,"CLASSIFICATION_TYPE":"U","NORAD_CAT_ID":58362,"ELEMENT_SET_NO":999,"REV_AT_EPOCH":578,"BSTAR":-0.00045564541,"MEAN_MOTION_DOT":-0.00012466,"MEAN_MOTION_DDOT":0}]
